{"updated_at":"2026-06-14T00:15:38.702233Z","count":200,"data":[{"NORAD_CAT_ID":"69502","OBJECT_NAME":"OBJECT A","OBJECT_ID":"2026-132A","EPOCH":"2026-06-13T21:13:26.603616","TLE_LINE1":"1 69502U 26132A   26164.88433569  .00000544  00000-0  49722-4 0  9992","TLE_LINE2":"2 69502  97.6917 228.6031 0012190 283.6406  76.3459 14.99041241   286"},{"NORAD_CAT_ID":"69503","OBJECT_NAME":"OBJECT B","OBJECT_ID":"2026-132B","EPOCH":"2026-06-13T21:13:16.949280","TLE_LINE1":"1 69503U 26132B   26164.88422395  .00000399  00000-0  37682-4 0  9998","TLE_LINE2":"2 69503  97.6948 228.6040 0012141 285.8591  74.1293 14.99132931   285"},{"NORAD_CAT_ID":"69504","OBJECT_NAME":"OBJECT C","OBJECT_ID":"2026-132C","EPOCH":"2026-06-13T19:36:06.817248","TLE_LINE1":"1 69504U 26132C   26164.81674557  .00001445  00000-0  12157-3 0  9993","TLE_LINE2":"2 69504  97.6890 228.5358 0013665 297.7771  62.2066 14.99754501   275"},{"NORAD_CAT_ID":"69505","OBJECT_NAME":"OBJECT D","OBJECT_ID":"2026-132D","EPOCH":"2026-06-13T09:58:23.387808","TLE_LINE1":"1 69505U 26132D   26164.41554847  .00001509  00000-0  12292-3 0  9990","TLE_LINE2":"2 69505  97.6871 228.1350 0011034 315.3023  44.7311 15.00977591   208"},{"NORAD_CAT_ID":"69506","OBJECT_NAME":"OBJECT E","OBJECT_ID":"2026-132E","EPOCH":"2026-06-13T09:58:13.362816","TLE_LINE1":"1 69506U 26132E   26164.41543244  .00001671  00000-0  13578-3 0  9998","TLE_LINE2":"2 69506  97.6848 228.1411 0011327 323.9735  36.0724 15.00908353   214"},{"NORAD_CAT_ID":"69507","OBJECT_NAME":"OBJECT F","OBJECT_ID":"2026-132F","EPOCH":"2026-06-13T09:58:10.881408","TLE_LINE1":"1 69507U 26132F   26164.41540372  .00003170  00000-0  25250-3 0  9994","TLE_LINE2":"2 69507  97.6869 228.1362 0010915 319.8335  40.2082 15.01040982   204"},{"NORAD_CAT_ID":"69472","OBJECT_NAME":"OBJECT A","OBJECT_ID":"2026-128A","EPOCH":"2026-06-13T16:46:14.959200","TLE_LINE1":"1 69472U 26128A   26164.69878425  .00026094  00000-0  37869-3 0  9992","TLE_LINE2":"2 69472  54.9941 321.1428 0008204 275.7594  84.2506 15.55676420   686"},{"NORAD_CAT_ID":"69473","OBJECT_NAME":"OBJECT B","OBJECT_ID":"2026-128B","EPOCH":"2026-06-13T16:45:16.375680","TLE_LINE1":"1 69473U 26128B   26164.69810620  .00027909  00000-0  39829-3 0  9990","TLE_LINE2":"2 69473  55.0033 321.1410 0008258 276.8245  83.1851 15.56093574   670"},{"NORAD_CAT_ID":"69537","OBJECT_NAME":"ZQ-2E R/B","OBJECT_ID":"2026-128C","EPOCH":"2026-06-13T19:22:37.658784","TLE_LINE1":"1 69537U 26128C   26164.80738031  .00042028  00000-0  41664-3 0  9998","TLE_LINE2":"2 69537  54.5308 319.8506 0065962 334.9361  24.8473 15.62647846   698"}]}